CCSDS_OMM_VERS = 2.0
CREATION_DATE  = 
ORIGINATOR     = 

OBJECT_NAME    = STARLINK-35739
OBJECT_ID      = 2025-294Z
CENTER_NAME    = EARTH
REF_FRAME      = TEME
TIME_SYSTEM    = UTC
MEAN_ELEMENT_THEORY = SGP/SGP4

EPOCH          = 2026-01-08T14:00:01.999872
MEAN_MOTION    = 15.40664824
ECCENTRICITY   = .00015331
INCLINATION    = 43.0005
RA_OF_ASC_NODE = 21.4411
ARG_OF_PERICENTER = 272.4840
MEAN_ANOMALY   = 8.9013

EPHEMERIS_TYPE = 0
CLASSIFICATION_TYPE = U
NORAD_CAT_ID   = 67053
ELEMENT_SET_NO = 999
REV_AT_EPOCH   = 423
BSTAR          = .12084665E-2
MEAN_MOTION_DOT = .50452E-3
MEAN_MOTION_DDOT = 0

CCSDS_OMM_VERS = 2.0
CREATION_DATE  = 
ORIGINATOR     = 

OBJECT_NAME    = STARLINK-35754
OBJECT_ID      = 2025-294AA
CENTER_NAME    = EARTH
REF_FRAME      = TEME
TIME_SYSTEM    = UTC
MEAN_ELEMENT_THEORY = SGP/SGP4

EPOCH          = 2026-01-08T14:00:01.999872
MEAN_MOTION    = 15.40657782
ECCENTRICITY   = .00009176
INCLINATION    = 43.0010
RA_OF_ASC_NODE = 21.5910
ARG_OF_PERICENTER = 282.2586
MEAN_ANOMALY   = 296.9637

EPHEMERIS_TYPE = 0
CLASSIFICATION_TYPE = U
NORAD_CAT_ID   = 67054
ELEMENT_SET_NO = 999
REV_AT_EPOCH   = 440
BSTAR          = .11639041E-2
MEAN_MOTION_DOT = .48557E-3
MEAN_MOTION_DDOT = 0

CCSDS_OMM_VERS = 2.0
CREATION_DATE  = 
ORIGINATOR     = 

OBJECT_NAME    = STARLINK-35790
OBJECT_ID      = 2025-294AB
CENTER_NAME    = EARTH
REF_FRAME      = TEME
TIME_SYSTEM    = UTC
MEAN_ELEMENT_THEORY = SGP/SGP4

EPOCH          = 2026-01-08T14:00:01.999872
MEAN_MOTION    = 15.40645131
ECCENTRICITY   = .00013156
INCLINATION    = 43.0011
RA_OF_ASC_NODE = 21.6508
ARG_OF_PERICENTER = 285.3173
MEAN_ANOMALY   = 269.0339

EPHEMERIS_TYPE = 0
CLASSIFICATION_TYPE = U
NORAD_CAT_ID   = 67055
ELEMENT_SET_NO = 999
REV_AT_EPOCH   = 460
BSTAR          = .15390185E-2
MEAN_MOTION_DOT = .64412E-3
MEAN_MOTION_DDOT = 0

CCSDS_OMM_VERS = 2.0
CREATION_DATE  = 
ORIGINATOR     = 

OBJECT_NAME    = STARLINK-36143
OBJECT_ID      = 2025-294AC
CENTER_NAME    = EARTH
REF_FRAME      = TEME
TIME_SYSTEM    = UTC
MEAN_ELEMENT_THEORY = SGP/SGP4

EPOCH          = 2026-01-08T14:00:01.999872
MEAN_MOTION    = 15.40651005
ECCENTRICITY   = .0001147
INCLINATION    = 43.0012
RA_OF_ASC_NODE = 21.7703
ARG_OF_PERICENTER = 276.5427
MEAN_ANOMALY   = 228.0401

EPHEMERIS_TYPE = 0
CLASSIFICATION_TYPE = U
NORAD_CAT_ID   = 67056
ELEMENT_SET_NO = 999
REV_AT_EPOCH   = 460
BSTAR          = .15097829E-2
MEAN_MOTION_DOT = .63184E-3
MEAN_MOTION_DDOT = 0

CCSDS_OMM_VERS = 2.0
CREATION_DATE  = 
ORIGINATOR     = 

OBJECT_NAME    = STARLINK-36141
OBJECT_ID      = 2025-294AD
CENTER_NAME    = EARTH
REF_FRAME      = TEME
TIME_SYSTEM    = UTC
MEAN_ELEMENT_THEORY = SGP/SGP4

EPOCH          = 2026-01-08T14:00:01.999872
MEAN_MOTION    = 15.40653469
ECCENTRICITY   = .00009685
INCLINATION    = 43.0011
RA_OF_ASC_NODE = 21.7407
ARG_OF_PERICENTER = 274.5807
MEAN_ANOMALY   = 242.4343

EPHEMERIS_TYPE = 0
CLASSIFICATION_TYPE = U
NORAD_CAT_ID   = 67057
ELEMENT_SET_NO = 999
REV_AT_EPOCH   = 452
BSTAR          = .14014788E-2
MEAN_MOTION_DOT = .58599E-3
MEAN_MOTION_DDOT = 0

CCSDS_OMM_VERS = 2.0
CREATION_DATE  = 
ORIGINATOR     = 

OBJECT_NAME    = STARLINK-35767
OBJECT_ID      = 2025-294AE
CENTER_NAME    = EARTH
REF_FRAME      = TEME
TIME_SYSTEM    = UTC
MEAN_ELEMENT_THEORY = SGP/SGP4

EPOCH          = 2026-01-08T14:00:01.999872
MEAN_MOTION    = 15.40661938
ECCENTRICITY   = .00014426
INCLINATION    = 43.0014
RA_OF_ASC_NODE = 21.6819
ARG_OF_PERICENTER = 278.9498
MEAN_ANOMALY   = 262.9394

EPHEMERIS_TYPE = 0
CLASSIFICATION_TYPE = U
NORAD_CAT_ID   = 67058
ELEMENT_SET_NO = 999
REV_AT_EPOCH   = 440
BSTAR          = .14444079E-2
MEAN_MOTION_DOT = .60436E-3
MEAN_MOTION_DDOT = 0

CCSDS_OMM_VERS = 2.0
CREATION_DATE  = 
ORIGINATOR     = 

OBJECT_NAME    = HULIANWANG DIGUI-119
OBJECT_ID      = 2025-295A
CENTER_NAME    = EARTH
REF_FRAME      = TEME
TIME_SYSTEM    = UTC
MEAN_ELEMENT_THEORY = SGP/SGP4

EPOCH          = 2026-01-07T22:28:10.930368
MEAN_MOTION    = 14.21984440
ECCENTRICITY   = .00103385
INCLINATION    = 50.0069
RA_OF_ASC_NODE = 261.8039
ARG_OF_PERICENTER = 339.4342
MEAN_ANOMALY   = 20.6153

EPHEMERIS_TYPE = 0
CLASSIFICATION_TYPE = U
NORAD_CAT_ID   = 67059
ELEMENT_SET_NO = 999
REV_AT_EPOCH   = 385
BSTAR          = .21471119E-3
MEAN_MOTION_DOT = .319E-5
MEAN_MOTION_DDOT = 0

CCSDS_OMM_VERS = 2.0
CREATION_DATE  = 
ORIGINATOR     = 

OBJECT_NAME    = HULIANWANG DIGUI-120
OBJECT_ID      = 2025-295B
CENTER_NAME    = EARTH
REF_FRAME      = TEME
TIME_SYSTEM    = UTC
MEAN_ELEMENT_THEORY = SGP/SGP4

EPOCH          = 2026-01-07T10:32:23.738496
MEAN_MOTION    = 14.22912326
ECCENTRICITY   = .0011266
INCLINATION    = 50.0031
RA_OF_ASC_NODE = 263.8476
ARG_OF_PERICENTER = 339.6814
MEAN_ANOMALY   = 20.3649

EPHEMERIS_TYPE = 0
CLASSIFICATION_TYPE = U
NORAD_CAT_ID   = 67060
ELEMENT_SET_NO = 999
REV_AT_EPOCH   = 378
BSTAR          = .16043E-3
MEAN_MOTION_DOT = .204E-5
MEAN_MOTION_DDOT = 0

CCSDS_OMM_VERS = 2.0
CREATION_DATE  = 
ORIGINATOR     = 

OBJECT_NAME    = HULIANWANG DIGUI-121
OBJECT_ID      = 2025-295C
CENTER_NAME    = EARTH
REF_FRAME      = TEME
TIME_SYSTEM    = UTC
MEAN_ELEMENT_THEORY = SGP/SGP4

EPOCH          = 2026-01-07T05:31:39.815616
MEAN_MOTION    = 14.22771385
ECCENTRICITY   = .00109493
INCLINATION    = 50.0017
RA_OF_ASC_NODE = 264.7238
ARG_OF_PERICENTER = 336.8439
MEAN_ANOMALY   = 23.1979

EPHEMERIS_TYPE = 0
CLASSIFICATION_TYPE = U
NORAD_CAT_ID   = 67061
ELEMENT_SET_NO = 999
REV_AT_EPOCH   = 375
BSTAR          = .19807361E-3
MEAN_MOTION_DOT = .288E-5
MEAN_MOTION_DDOT = 0

CCSDS_OMM_VERS = 2.0
CREATION_DATE  = 
ORIGINATOR     = 

OBJECT_NAME    = HULIANWANG DIGUI-122
OBJECT_ID      = 2025-295D
CENTER_NAME    = EARTH
REF_FRAME      = TEME
TIME_SYSTEM    = UTC
MEAN_ELEMENT_THEORY = SGP/SGP4

EPOCH          = 2026-01-07T00:24:08.313696
MEAN_MOTION    = 14.23200322
ECCENTRICITY   = .001083
INCLINATION    = 50.0048
RA_OF_ASC_NODE = 265.6087
ARG_OF_PERICENTER = 341.1284
MEAN_ANOMALY   = 18.9226

EPHEMERIS_TYPE = 0
CLASSIFICATION_TYPE = U
NORAD_CAT_ID   = 67062
ELEMENT_SET_NO = 999
REV_AT_EPOCH   = 372
BSTAR          = .1832509E-3
MEAN_MOTION_DOT = .258E-5
MEAN_MOTION_DDOT = 0

CCSDS_OMM_VERS = 2.0
CREATION_DATE  = 
ORIGINATOR     = 

OBJECT_NAME    = HULIANWANG DIGUI-123
OBJECT_ID      = 2025-295E
CENTER_NAME    = EARTH
REF_FRAME      = TEME
TIME_SYSTEM    = UTC
MEAN_ELEMENT_THEORY = SGP/SGP4

EPOCH          = 2026-01-07T10:29:06.685152
MEAN_MOTION    = 14.23195801
ECCENTRICITY   = .0009714
INCLINATION    = 50.0044
RA_OF_ASC_NODE = 263.8344
ARG_OF_PERICENTER = 341.7305
MEAN_ANOMALY   = 18.3258

EPHEMERIS_TYPE = 0
CLASSIFICATION_TYPE = U
NORAD_CAT_ID   = 67063
ELEMENT_SET_NO = 999
REV_AT_EPOCH   = 378
BSTAR          = .14459E-3
MEAN_MOTION_DOT = .17E-5
MEAN_MOTION_DDOT = 0

CCSDS_OMM_VERS = 2.0
CREATION_DATE  = 
ORIGINATOR     = 

OBJECT_NAME    = HULIANWANG DIGUI-124
OBJECT_ID      = 2025-295F
CENTER_NAME    = EARTH
REF_FRAME      = TEME
TIME_SYSTEM    = UTC
MEAN_ELEMENT_THEORY = SGP/SGP4

EPOCH          = 2026-01-07T20:34:07.137984
MEAN_MOTION    = 14.22844136
ECCENTRICITY   = .0008137
INCLINATION    = 50.0002
RA_OF_ASC_NODE = 262.0332
ARG_OF_PERICENTER = 340.7156
MEAN_ANOMALY   = 19.3447

EPHEMERIS_TYPE = 0
CLASSIFICATION_TYPE = U
NORAD_CAT_ID   = 67064
ELEMENT_SET_NO = 999
REV_AT_EPOCH   = 384
BSTAR          = .11773E-3
MEAN_MOTION_DOT = .107E-5
MEAN_MOTION_DDOT = 0

