STARLINK-35739          
1 67053U 25294Z   26008.58335648  .00050452  00000+0  12085-2 0  9994
2 67053  43.0005  21.4411 0001533 272.4840   8.9013 15.40664824  4237
STARLINK-35754          
1 67054U 25294AA  26008.58335648  .00048557  00000+0  11639-2 0  9992
2 67054  43.0010  21.5910 0000917 282.2586 296.9637 15.40657782  4405
STARLINK-35790          
1 67055U 25294AB  26008.58335648  .00064412  00000+0  15390-2 0  9999
2 67055  43.0011  21.6508 0001315 285.3173 269.0339 15.40645131  4607
STARLINK-36143          
1 67056U 25294AC  26008.58335648  .00063184  00000+0  15098-2 0  9990
2 67056  43.0012  21.7703 0001147 276.5427 228.0401 15.40651005  4606
STARLINK-36141          
1 67057U 25294AD  26008.58335648  .00058599  00000+0  14015-2 0  9993
2 67057  43.0011  21.7407 0000968 274.5807 242.4343 15.40653469  4529
STARLINK-35767          
1 67058U 25294AE  26008.58335648  .00060436  00000+0  14444-2 0  9993
2 67058  43.0014  21.6819 0001442 278.9498 262.9394 15.40661938  4401
HULIANWANG DIGUI-119    
1 67059U 25295A   26007.93623762  .00000319  00000+0  21471-3 0  9993
2 67059  50.0069 261.8039 0010338 339.4342  20.6153 14.21984440  3851
HULIANWANG DIGUI-120    
1 67060U 25295B   26007.43916364  .00000204  00000+0  16043-3 0  9995
2 67060  50.0031 263.8476 0011266 339.6814  20.3649 14.22912326  3780
HULIANWANG DIGUI-121    
1 67061U 25295C   26007.23032194  .00000288  00000+0  19807-3 0  9997
2 67061  50.0017 264.7238 0010949 336.8439  23.1979 14.22771385  3752
HULIANWANG DIGUI-122    
1 67062U 25295D   26007.01676289  .00000258  00000+0  18325-3 0  9994
2 67062  50.0048 265.6087 0010830 341.1284  18.9226 14.23200322  3728
HULIANWANG DIGUI-123    
1 67063U 25295E   26007.43688293  .00000170  00000+0  14459-3 0  9996
2 67063  50.0044 263.8344 0009714 341.7305  18.3258 14.23195801  3780
HULIANWANG DIGUI-124    
1 67064U 25295F   26007.85702706  .00000107  00000+0  11773-3 0  9995
2 67064  50.0002 262.0332 0008137 340.7156  19.3447 14.22844136  3843
